0 NAHUEL 1A
1 24714U 97002B   13281.88708307 -.00000019  00000-0  10000-3 0  6815
2 24714 005.3686 061.1204 0006748 078.5016 281.6567 00.99382211 61034
0 NAHUEL 1A
1 24714U 97002B   13282.89326638  .00000000  00000-0  10000-3 0  6831
2 24714 005.3719 061.1055 0006784 079.1530 281.0053 00.99377406 61048
0 NAHUEL 1A
1 24714U 97002B   13283.89942183  .00000018  00000-0  10000-3 0  6829
2 24714 005.3730 061.0987 0006824 078.2281 281.9247 00.99381943 61058
0 NAHUEL 1A
1 24714U 97002B   13285.91181486  .00000048  00000-0  10000-3 0  6839
2 24714 005.3772 061.0780 0006674 079.6081 280.5571 00.99381944 61079
0 NAHUEL 1A
1 24714U 97002B   13287.92416754  .00000072  00000-0  10000-3 0  6849
2 24714 005.3812 061.0588 0006756 079.3804 280.7851 00.99382193 61093
0 NAHUEL 1A
1 24714U 97002B   13289.93642822  .00000088  00000-0  10000-3 0  6857
2 24714 005.3863 061.0365 0006956 078.7570 281.3572 00.99381674 61110
0 NAHUEL 1A
1 24714U 97002B   13289.93646194  .00000088  00000-0  10000-3 0  6875
2 24714 005.3853 061.0393 0006842 078.9877 281.1598 00.99382657 61114
0 NAHUEL 1A
1 24714U 97002B   13289.93649739  .00000088  00000-0  10000-3 0  6862
2 24714 005.3857 061.0366 0006719 078.6674 281.4816 00.99382230 61116
0 NAHUEL 1A
1 24714U 97002B   13293.96085632  .00000089  00000-0  10000-3 0  6889
2 24714 005.3936 060.9977 0006800 079.6941 280.3629 00.99384120 61153
